[
    {
        "Altitude(m)": 553957.6744785014,
        "Argument of Periapsis(deg)": 0.019868973332140504,
        "Eccentricity": 0.0,
        "Inclination(deg)": 53.0,
        "Latitude(deg)": 2.3485273973265675,
        "Longitude(deg)": 4.3809636902315034,
        "Mean Anomaly(deg)": 3.002078602732811,
        "RAAN(deg)": 104.97043010558406,
        "Satellite Name": "Starlink Shell 1 482",
        "Satellite Number": 482,
        "Semi-Major Axis(m)": 6931778.249405717,
        "Time(s)": 570
    },
    {
        "Altitude(m)": 553906.814813384,
        "Argument of Periapsis(deg)": 0.02021755181165174,
        "Eccentricity": 0.0,
        "Inclination(deg)": 53.0,
        "Latitude(deg)": 2.8522130048416066,
        "Longitude(deg)": 4.717139551762437,
        "Mean Anomaly(deg)": 3.6289098062894682,
        "RAAN(deg)": 104.96991133550658,
        "Satellite Name": "Starlink Shell 1 482",
        "Satellite Number": 482,
        "Semi-Major Axis(m)": 6931778.249405717,
        "Time(s)": 580
    },
    {
        "Altitude(m)": 553858.7765282384,
        "Argument of Periapsis(deg)": 0.020566130291162974,
        "Eccentricity": 0.0,
        "Inclination(deg)": 53.0,
        "Latitude(deg)": 3.3557781722796682,
        "Longitude(deg)": 5.053650140621926,
        "Mean Anomaly(deg)": 4.255741009846227,
        "RAAN(deg)": 104.9693925654291,
        "Satellite Name": "Starlink Shell 1 482",
        "Satellite Number": 482,
        "Semi-Major Axis(m)": 6931778.249405717,
        "Time(s)": 590
    },
    {
        "Altitude(m)": 553813.559269058,
        "Argument of Periapsis(deg)": 0.020914708770674213,
        "Eccentricity": 0.0,
        "Inclination(deg)": 53.0,
        "Latitude(deg)": 3.8591997611506885,
        "Longitude(deg)": 5.390553494943371,
        "Mean Anomaly(deg)": 4.882572213402898,
        "RAAN(deg)": 104.96887379535163,
        "Satellite Name": "Starlink Shell 1 482",
        "Satellite Number": 482,
        "Semi-Major Axis(m)": 6931778.249405717,
        "Time(s)": 600
    },
    {
        "Altitude(m)": 553771.1613335089,
        "Argument of Periapsis(deg)": 0.021263287250185448,
        "Eccentricity": 0.0,
        "Inclination(deg)": 53.0,
        "Latitude(deg)": 4.362454550797863,
        "Longitude(deg)": 5.72790782703891,
        "Mean Anomaly(deg)": 5.509403416959542,
        "RAAN(deg)": 104.96835502527418,
        "Satellite Name": "Starlink Shell 1 482",
        "Satellite Number": 482,
        "Semi-Major Axis(m)": 6931778.249405717,
        "Time(s)": 610
    },
    {
        "Altitude(m)": 553731.5796745521,
        "Argument of Periapsis(deg)": 0.021611865729696686,
        "Eccentricity": 0.0,
        "Inclination(deg)": 53.0,
        "Latitude(deg)": 4.865519226415937,
        "Longitude(deg)": 6.0657720531439,
        "Mean Anomaly(deg)": 6.1362346205164044,
        "RAAN(deg)": 104.9678362551967,
        "Satellite Name": "Starlink Shell 1 482",
        "Satellite Number": 482,
        "Semi-Major Axis(m)": 6931778.249405717,
        "Time(s)": 620
    },
    {
        "Altitude(m)": 553694.8099047253,
        "Argument of Periapsis(deg)": 0.02196044420920792,
        "Eccentricity": 0.0,
        "Inclination(deg)": 53.0,
        "Latitude(deg)": 5.368370366976893,
        "Longitude(deg)": 6.404204642251562,
        "Mean Anomaly(deg)": 6.763065824073074,
        "RAAN(deg)": 104.96731748511922,
        "Satellite Name": "Starlink Shell 1 482",
        "Satellite Number": 482,
        "Semi-Major Axis(m)": 6931778.249405717,
        "Time(s)": 630
    },
    {
        "Altitude(m)": 553660.84630113,
        "Argument of Periapsis(deg)": 0.02230902268871916,
        "Eccentricity": 0.0,
        "Inclination(deg)": 53.0,
        "Latitude(deg)": 5.870984433061386,
        "Longitude(deg)": 6.743264986470951,
        "Mean Anomaly(deg)": 7.389897027629719,
        "RAAN(deg)": 104.96679871504175,
        "Satellite Name": "Starlink Shell 1 482",
        "Satellite Number": 482,
        "Semi-Major Axis(m)": 6931778.249405717,
        "Time(s)": 640
    },
    {
        "Altitude(m)": 553629.6818110206,
        "Argument of Periapsis(deg)": 0.022657601168230398,
        "Eccentricity": 0.0,
        "Inclination(deg)": 53.0,
        "Latitude(deg)": 6.373337754571987,
        "Longitude(deg)": 7.0830122500003165,
        "Mean Anomaly(deg)": 8.016728231186491,
        "RAAN(deg)": 104.96627994496427,
        "Satellite Name": "Starlink Shell 1 482",
        "Satellite Number": 482,
        "Semi-Major Axis(m)": 6931778.249405717,
        "Time(s)": 650
    },
    {
        "Altitude(m)": 553601.3080581193,
        "Argument of Periapsis(deg)": 0.023006179647741636,
        "Eccentricity": 0.0,
        "Inclination(deg)": 53.0,
        "Latitude(deg)": 6.875406518326198,
        "Longitude(deg)": 7.423505899148974,
        "Mean Anomaly(deg)": 8.643559434743148,
        "RAAN(deg)": 104.9657611748868,
        "Satellite Name": "Starlink Shell 1 482",
        "Satellite Number": 482,
        "Semi-Major Axis(m)": 6931778.249405717,
        "Time(s)": 660
    },
    {
        "Altitude(m)": 553575.7153495394,
        "Argument of Periapsis(deg)": 0.023354758127252868,
        "Eccentricity": 0.0,
        "Inclination(deg)": 53.0,
        "Latitude(deg)": 7.377166755514954,
        "Longitude(deg)": 7.764806232441616,
        "Mean Anomaly(deg)": 9.270390638299894,
        "RAAN(deg)": 104.96524240480935,
        "Satellite Name": "Starlink Shell 1 482",
        "Satellite Number": 482,
        "Semi-Major Axis(m)": 6931778.249405717,
        "Time(s)": 670
    },
    {
        "Altitude(m)": 553552.8926834072,
        "Argument of Periapsis(deg)": 0.023703336606764106,
        "Eccentricity": 0.0,
        "Inclination(deg)": 53.0,
        "Latitude(deg)": 7.878594329010177,
        "Longitude(deg)": 8.106973397934455,
        "Mean Anomaly(deg)": 9.897221841856565,
        "RAAN(deg)": 104.96472363473187,
        "Satellite Name": "Starlink Shell 1 482",
        "Satellite Number": 482,
        "Semi-Major Axis(m)": 6931778.249405717,
        "Time(s)": 680
    },
    {
        "Altitude(m)": 553532.8277570923,
        "Argument of Periapsis(deg)": 0.024051915086275345,
        "Eccentricity": 0.0,
        "Inclination(deg)": 53.0,
        "Latitude(deg)": 8.37966492051741,
        "Longitude(deg)": 8.450067923495226,
        "Mean Anomaly(deg)": 10.524053045413325,
        "RAAN(deg)": 104.96420486465438,
        "Satellite Name": "Starlink Shell 1 482",
        "Satellite Number": 482,
        "Semi-Major Axis(m)": 6931778.249405717,
        "Time(s)": 690
    },
    {
        "Altitude(m)": 553515.5069761167,
        "Argument of Periapsis(deg)": 0.024400493565786583,
        "Eccentricity": 0.0,
        "Inclination(deg)": 53.0,
        "Latitude(deg)": 8.880354017556769,
        "Longitude(deg)": 8.794151247174119,
        "Mean Anomaly(deg)": 11.150884248970069,
        "RAAN(deg)": 104.96368609457691,
        "Satellite Name": "Starlink Shell 1 482",
        "Satellite Number": 482,
        "Semi-Major Axis(m)": 6931778.249405717,
        "Time(s)": 700
    },
    {
        "Altitude(m)": 553500.9154636804,
        "Argument of Periapsis(deg)": 0.024749072045297815,
        "Eccentricity": 0.0,
        "Inclination(deg)": 53.0,
        "Latitude(deg)": 9.380636900259127,
        "Longitude(deg)": 9.139284734795321,
        "Mean Anomaly(deg)": 11.777715452526753,
        "RAAN(deg)": 104.96316732449944,
        "Satellite Name": "Starlink Shell 1 482",
        "Satellite Number": 482,
        "Semi-Major Axis(m)": 6931778.249405717,
        "Time(s)": 710
    },
    {
        "Altitude(m)": 553489.0370708337,
        "Argument of Periapsis(deg)": 0.025097650524809053,
        "Eccentricity": 0.0,
        "Inclination(deg)": 53.0,
        "Latitude(deg)": 9.880488627970498,
        "Longitude(deg)": 9.485530210516954,
        "Mean Anomaly(deg)": 12.404546656083513,
        "RAAN(deg)": 104.96264855442196,
        "Satellite Name": "Starlink Shell 1 482",
        "Satellite Number": 482,
        "Semi-Major Axis(m)": 6931778.249405717,
        "Time(s)": 720
    },
    {
        "Altitude(m)": 553479.8543872681,
        "Argument of Periapsis(deg)": 0.02544622900432029,
        "Eccentricity": 0.0,
        "Inclination(deg)": 53.0,
        "Latitude(deg)": 10.379884025648838,
        "Longitude(deg)": 9.83295048748394,
        "Mean Anomaly(deg)": 13.031377859640157,
        "RAAN(deg)": 104.96212978434448,
        "Satellite Name": "Starlink Shell 1 482",
        "Satellite Number": 482,
        "Semi-Major Axis(m)": 6931778.249405717,
        "Time(s)": 730
    },
    {
        "Altitude(m)": 553473.3487527453,
        "Argument of Periapsis(deg)": 0.02579480748383153,
        "Eccentricity": 0.0,
        "Inclination(deg)": 53.0,
        "Latitude(deg)": 10.87879767004042,
        "Longitude(deg)": 10.181608385701566,
        "Mean Anomaly(deg)": 13.658209063196917,
        "RAAN(deg)": 104.961611014267,
        "Satellite Name": "Starlink Shell 1 482",
        "Satellite Number": 482,
        "Semi-Major Axis(m)": 6931778.249405717,
        "Time(s)": 740
    },
    {
        "Altitude(m)": 553469.5002691271,
        "Argument of Periapsis(deg)": 0.026143385963342765,
        "Eccentricity": 0.0,
        "Inclination(deg)": 53.0,
        "Latitude(deg)": 11.377203875626453,
        "Longitude(deg)": 10.531567262871702,
        "Mean Anomaly(deg)": 14.285040266753676,
        "RAAN(deg)": 104.96109224418954,
        "Satellite Name": "Starlink Shell 1 482",
        "Satellite Number": 482,
        "Semi-Major Axis(m)": 6931778.249405717,
        "Time(s)": 750
    }
]